{"type": "FeatureCollection", "features": [ {"type": "Feature", "properties": {"norad_id": 66536, "name": "STARLINK-35640", "group": "last-30-days", "lat": 39.23295172531705, "lon": 125.40455123154419, "alt_km": 409.9750826185418, "timestamp": "2025-12-10T23:33:11.622667+00:00", "meta": {"OBJECT_NAME": "STARLINK-35640", "OBJECT_ID": "2025-265W", "EPOCH": "2025-12-10T14:00:03.000384", "MEAN_MOTION": 15.50638765, "ECCENTRICITY": 0.00016194, "INCLINATION": 43.0001, "RA_OF_ASC_NODE": 66.5395, "ARG_OF_PERICENTER": 270.9729, "MEAN_ANOMALY": 92.7138, "EPHEMERIS_TYPE": 0, "CLASSIFICATION_TYPE": "U", "NORAD_CAT_ID": 66536, "ELEMENT_SET_NO": 999, "REV_AT_EPOCH": 462, "BSTAR": -0.0026893688, "MEAN_MOTION_DOT": -0.00155358, "MEAN_MOTION_DDOT": 0}, "tle": {"line1": "1 66536U 25265W   25344.58336806 -.00155358  00000+0 -26894-2 0  9992", "line2": "2 66536  43.0001  66.5395 0001619 270.9729  92.7138 15.50638765  4621"}}, "geometry": {"type": "Point", "coordinates": [125.40455123154419, 39.23295172531705]}}, {"type": "Feature", "properties": {"norad_id": 66537, "name": "STARLINK-35582", "group": "last-30-days", "lat": 39.83892548968175, "lon": 127.7564932652471, "alt_km": 409.8579230483574, "timestamp": "2025-12-10T23:33:11.622676+00:00", "meta": {"OBJECT_NAME": "STARLINK-35582", "OBJECT_ID": "2025-265X", "EPOCH": "2025-12-10T14:00:03.000384", "MEAN_MOTION": 15.50635726, "ECCENTRICITY": 0.00015288, "INCLINATION": 43.0003, "RA_OF_ASC_NODE": 66.5343, "ARG_OF_PERICENTER": 267.3333, "MEAN_ANOMALY": 98.2698, "EPHEMERIS_TYPE": 0, "CLASSIFICATION_TYPE": "U", "NORAD_CAT_ID": 66537, "ELEMENT_SET_NO": 999, "REV_AT_EPOCH": 464, "BSTAR": -0.0025802605, "MEAN_MOTION_DOT": -0.00149168, "MEAN_MOTION_DDOT": 0}, "tle": {"line1": "1 66537U 25265X   25344.58336806 -.00149168  00000+0 -25803-2 0  9994", "line2": "2 66537  43.0003  66.5343 0001528 267.3333  98.2698 15.50635726  4645"}}, "geometry": {"type": "Point", "coordinates": [127.7564932652471, 39.83892548968175]}}, {"type": "Feature", "properties": {"norad_id": 66538, "name": "STARLINK-35577", "group": "last-30-days", "lat": 40.397618435962556, "lon": 130.15567404247508, "alt_km": 409.8131362769318, "timestamp": "2025-12-10T23:33:11.622685+00:00", "meta": {"OBJECT_NAME": "STARLINK-35577", "OBJECT_ID": "2025-265Y", "EPOCH": "2025-12-10T14:00:03.000384", "MEAN_MOTION": 15.50629028, "ECCENTRICITY": 0.0001613, "INCLINATION": 43.0002, "RA_OF_ASC_NODE": 66.5291, "ARG_OF_PERICENTER": 269.8872, "MEAN_ANOMALY": 97.6374, "EPHEMERIS_TYPE": 0, "CLASSIFICATION_TYPE": "U", "NORAD_CAT_ID": 66538, "ELEMENT_SET_NO": 999, "REV_AT_EPOCH": 464, "BSTAR": -0.0023830777, "MEAN_MOTION_DOT": -0.00137959, "MEAN_MOTION_DDOT": 0}, "tle": {"line1": "1 66538U 25265Y   25344.58336806 -.00137959  00000+0 -23831-2 0  9999", "line2": "2 66538  43.0002  66.5291 0001613 269.8872  97.6374 15.50629028  4649"}}, "geometry": {"type": "Point", "coordinates": [130.15567404247508, 40.397618435962556]}}, {"type": "Feature", "properties": {"norad_id": 66539, "name": "STARLINK-35697", "group": "last-30-days", "lat": 40.90569105676557, "lon": 132.59307079104974, "alt_km": 409.69882221539774, "timestamp": "2025-12-10T23:33:11.622693+00:00", "meta": {"OBJECT_NAME": "STARLINK-35697", "OBJECT_ID": "2025-265Z", "EPOCH": "2025-12-10T14:00:03.000384", "MEAN_MOTION": 15.50631145, "ECCENTRICITY": 0.00015844, "INCLINATION": 42.9999, "RA_OF_ASC_NODE": 66.5228, "ARG_OF_PERICENTER": 272.816, "MEAN_ANOMALY": 96.6241, "EPHEMERIS_TYPE": 0, "CLASSIFICATION_TYPE": "U", "NORAD_CAT_ID": 66539, "ELEMENT_SET_NO": 999, "REV_AT_EPOCH": 464, "BSTAR": -0.0023549901, "MEAN_MOTION_DOT": -0.00136374, "MEAN_MOTION_DDOT": 0}, "tle": {"line1": "1 66539U 25265Z   25344.58336806 -.00136374  00000+0 -23550-2 0  9998", "line2": "2 66539  42.9999  66.5228 0001584 272.8160  96.6241 15.50631145  4649"}}, "geometry": {"type": "Point", "coordinates": [132.59307079104974, 40.90569105676557]}}, {"type": "Feature", "properties": {"norad_id": 66540, "name": "STARLINK-35818", "group": "last-30-days", "lat": 41.36042177818921, "lon": 135.0604292146767, "alt_km": 409.58498630579743, "timestamp": "2025-12-10T23:33:11.622704+00:00", "meta": {"OBJECT_NAME": "STARLINK-35818", "OBJECT_ID": "2025-265AA", "EPOCH": "2025-12-10T14:00:03.000384", "MEAN_MOTION": 15.50622799, "ECCENTRICITY": 0.00015724, "INCLINATION": 43, "RA_OF_ASC_NODE": 66.5186, "ARG_OF_PERICENTER": 277.6071, "MEAN_ANOMALY": 93.7484, "EPHEMERIS_TYPE": 0, "CLASSIFICATION_TYPE": "U", "NORAD_CAT_ID": 66540, "ELEMENT_SET_NO": 999, "REV_AT_EPOCH": 464, "BSTAR": -0.0020745236, "MEAN_MOTION_DOT": -0.0012038, "MEAN_MOTION_DDOT": 0}, "tle": {"line1": "1 66540U 25265AA  25344.58336806 -.00120380  00000+0 -20745-2 0  9993", "line2": "2 66540  43.0000  66.5186 0001572 277.6071  93.7484 15.50622799  4642"}}, "geometry": {"type": "Point", "coordinates": [135.0604292146767, 41.36042177818921]}}, {"type": "Feature", "properties": {"norad_id": 66541, "name": "STARLINK-35796", "group": "last-30-days", "lat": 41.762672158414524, "lon": 137.56479705212712, "alt_km": 409.5894630027533, "timestamp": "2025-12-10T23:33:11.622714+00:00", "meta": {"OBJECT_NAME": "STARLINK-35796", "OBJECT_ID": "2025-265AB", "EPOCH": "2025-12-10T14:00:03.000384", "MEAN_MOTION": 15.50627441, "ECCENTRICITY": 0.00015939, "INCLINATION": 43.0005, "RA_OF_ASC_NODE": 66.5139, "ARG_OF_PERICENTER": 274.5667, "MEAN_ANOMALY": 98.7084, "EPHEMERIS_TYPE": 0, "CLASSIFICATION_TYPE": "U", "NORAD_CAT_ID": 66541, "ELEMENT_SET_NO": 999, "REV_AT_EPOCH": 464, "BSTAR": -0.002298919, "MEAN_MOTION_DOT": -0.00133171, "MEAN_MOTION_DDOT": 0}, "tle": {"line1": "1 66541U 25265AB  25344.58336806 -.00133171  00000+0 -22989-2 0  9998", "line2": "2 66541  43.0005  66.5139 0001593 274.5667  98.7084 15.50627441  4646"}}, "geometry": {"type": "Point", "coordinates": [137.56479705212712, 41.762672158414524]}}, {"type": "Feature", "properties": {"norad_id": 66542, "name": "STARLINK-35833", "group": "last-30-days", "lat": 42.10974993082769, "lon": 140.10488576037653, "alt_km": 409.64840956394255, "timestamp": "2025-12-10T23:33:11.622723+00:00", "meta": {"OBJECT_NAME": "STARLINK-35833", "OBJECT_ID": "2025-265AC", "EPOCH": "2025-12-10T14:00:03.000384", "MEAN_MOTION": 15.50647337, "ECCENTRICITY": 0.00016584, "INCLINATION": 43.0004, "RA_OF_ASC_NODE": 66.5102, "ARG_OF_PERICENTER": 271.4339, "MEAN_ANOMALY": 103.759, "EPHEMERIS_TYPE": 0, "CLASSIFICATION_TYPE": "U", "NORAD_CAT_ID": 66542, "ELEMENT_SET_NO": 999, "REV_AT_EPOCH": 464, "BSTAR": -0.0030102352, "MEAN_MOTION_DOT": -0.00173508, "MEAN_MOTION_DDOT": 0}, "tle": {"line1": "1 66542U 25265AC  25344.58336806 -.00173508  00000+0 -30102-2 0  9993", "line2": "2 66542  43.0004  66.5102 0001658 271.4339 103.7590 15.50647337  4645"}}, "geometry": {"type": "Point", "coordinates": [140.10488576037653, 42.10974993082769]}}, {"type": "Feature", "properties": {"norad_id": 66543, "name": "STARLINK-35315", "group": "last-30-days", "lat": 42.39857136358244, "lon": 142.65274077098783, "alt_km": 409.50356782939707, "timestamp": "2025-12-10T23:33:11.622732+00:00", "meta": {"OBJECT_NAME": "STARLINK-35315", "OBJECT_ID": "2025-265AD", "EPOCH": "2025-12-10T14:00:03.000384", "MEAN_MOTION": 15.50624318, "ECCENTRICITY": 0.00015952, "INCLINATION": 43.0004, "RA_OF_ASC_NODE": 66.5042, "ARG_OF_PERICENTER": 274.5447, "MEAN_ANOMALY": 102.5616, "EPHEMERIS_TYPE": 0, "CLASSIFICATION_TYPE": "U", "NORAD_CAT_ID": 66543, "ELEMENT_SET_NO": 999, "REV_AT_EPOCH": 453, "BSTAR": -0.002145955, "MEAN_MOTION_DOT": -0.00124457, "MEAN_MOTION_DDOT": 0}, "tle": {"line1": "1 66543U 25265AD  25344.58336806 -.00124457  00000+0 -21460-2 0  9990", "line2": "2 66543  43.0004  66.5042 0001595 274.5447 102.5616 15.50624318  4531"}}, "geometry": {"type": "Point", "coordinates": [142.65274077098783, 42.39857136358244]}}, {"type": "Feature", "properties": {"norad_id": 66544, "name": "STARLINK-35728", "group": "last-30-days", "lat": 42.61742202342588, "lon": 145.0661850751629, "alt_km": 409.4015558104975, "timestamp": "2025-12-10T23:33:11.622741+00:00", "meta": {"OBJECT_NAME": "STARLINK-35728", "OBJECT_ID": "2025-265AE", "EPOCH": "2025-12-10T14:00:03.000384", "MEAN_MOTION": 15.5049572, "ECCENTRICITY": 0.00018464, "INCLINATION": 43, "RA_OF_ASC_NODE": 66.4991, "ARG_OF_PERICENTER": 281.1465, "MEAN_ANOMALY": 97.7971, "EPHEMERIS_TYPE": 0, "CLASSIFICATION_TYPE": "U", "NORAD_CAT_ID": 66544, "ELEMENT_SET_NO": 999, "REV_AT_EPOCH": 464, "BSTAR": 0.0019984645, "MEAN_MOTION_DOT": 0.00118336, "MEAN_MOTION_DDOT": 0}, "tle": {"line1": "1 66544U 25265AE  25344.58336806  .00118336  00000+0  19985-2 0  9997", "line2": "2 66544  43.0000  66.4991 0001846 281.1465  97.7971 15.50495720  4647"}}, "geometry": {"type": "Point", "coordinates": [145.0661850751629, 42.61742202342588]}}, {"type": "Feature", "properties": {"norad_id": 66545, "name": "SHIJIAN-30A", "group": "last-30-days", "lat": 20.432894247473147, "lon": -1.8399632147393048, "alt_km": 509.85239336356517, "timestamp": "2025-12-10T23:33:11.622751+00:00", "meta": {"OBJECT_NAME": "SHIJIAN-30A", "OBJECT_ID": "2025-266A", "EPOCH": "2025-12-10T18:41:23.790912", "MEAN_MOTION": 15.15584955, "ECCENTRICITY": 0.0012754, "INCLINATION": 51.7987, "RA_OF_ASC_NODE": 342.049, "ARG_OF_PERICENTER": 349.3306, "MEAN_ANOMALY": 10.7398, "EPHEMERIS_TYPE": 0, "CLASSIFICATION_TYPE": "U", "NORAD_CAT_ID": 66545, "ELEMENT_SET_NO": 999, "REV_AT_EPOCH": 328, "BSTAR": 0.00084199, "MEAN_MOTION_DOT": 0.00015941, "MEAN_MOTION_DDOT": 0}, "tle": {"line1": "1 66545U 25266A   25344.77874758  .00015941  00000+0  84199-3 0  9991", "line2": "2 66545  51.7987 342.0490 0012754 349.3306  10.7398 15.15584955  3283"}}, "geometry": {"type": "Point", "coordinates": [-1.8399632147393048, 20.432894247473147]}}]}